start=new Date('2022-08-26T00:00:00.000Z').valueOf();
sats=[{"MEAN_MOTION":"15.32523868","EPOCH":"2022-08-25T22:00:00.999936","ARG_OF_PERICENTER":"126.9807","SEMIMAJOR_AXIS":"6846.422","OBJECT_TYPE":"PAYLOAD","COUNTRY_CODE":"US","ELEMENT_SET_NO":"999","CENTER_NAME":"EARTH","TIME_SYSTEM":"UTC","TLE_LINE2":"2 53215  97.6556 297.9066 0002268 126.9807  66.7216 15.32523868  1301","REV_AT_EPOCH":"130","TLE_LINE1":"1 53215U 22084AC  22237.91667824 -.01212622  00000-0 -42620-1 0  9994","INCLINATION":"97.6556","RA_OF_ASC_NODE":"297.9066","REF_FRAME":"TEME","FILE":"3547674","GP_ID":"211009821","RCS_SIZE":"LARGE","MEAN_MOTION_DDOT":"0.0000000000000","EPHEMERIS_TYPE":"0","BSTAR":"-0.04262000000000","MEAN_MOTION_DOT":"-0.01212622","OBJECT_ID":"2022-084AC","MEAN_ANOMALY":"66.7216","CLASSIFICATION_TYPE":"U","MEAN_ELEMENT_THEORY":"SGP4","OBJECT_NAME":"STARLINK-4335","NORAD_CAT_ID":"53215","PERIOD":"93.963","PERIAPSIS":"466.734","SITE":"AFWTR","LAUNCH_DATE":"2022-07-22","DECAY_DATE":null,"APOAPSIS":"469.840","ECCENTRICITY":"0.00022680"},{"LAUNCH_DATE":"2022-07-22","PERIAPSIS":"467.725","SITE":"AFWTR","APOAPSIS":"470.495","ECCENTRICITY":"0.00020230","DECAY_DATE":null,"OBJECT_NAME":"STARLINK-4376","MEAN_ELEMENT_THEORY":"SGP4","PERIOD":"93.980","NORAD_CAT_ID":"53216","MEAN_ANOMALY":"74.6034","OBJECT_ID":"2022-084AD","CLASSIFICATION_TYPE":"U","MEAN_MOTION_DDOT":"0.0000000000000","RCS_SIZE":"LARGE","BSTAR":"-0.04299800000000","MEAN_MOTION_DOT":"-0.01212707","EPHEMERIS_TYPE":"0","REF_FRAME":"TEME","RA_OF_ASC_NODE":"297.9101","INCLINATION":"97.6556","TLE_LINE1":"1 53216U 22084AD  22237.91667824 -.01212707  00000-0 -42998-1 0  9997","GP_ID":"211009547","FILE":"3547674","REV_AT_EPOCH":"130","TLE_LINE2":"2 53216  97.6556 297.9101 0002023 109.0215  74.6034 15.32247689  1306","ELEMENT_SET_NO":"999","COUNTRY_CODE":"US","OBJECT_TYPE":"PAYLOAD","TIME_SYSTEM":"UTC","CENTER_NAME":"EARTH","ARG_OF_PERICENTER":"109.0215","EPOCH":"2022-08-25T22:00:00.999936","MEAN_MOTION":"15.32247689","SEMIMAJOR_AXIS":"6847.245"},{"OBJECT_ID":"2022-084AE","MEAN_ANOMALY":"76.2100","CLASSIFICATION_TYPE":"U","MEAN_MOTION_DDOT":"0.0000000000000","RCS_SIZE":"LARGE","MEAN_MOTION_DOT":"-0.01212671","BSTAR":"-0.04253700000000","EPHEMERIS_TYPE":"0","LAUNCH_DATE":"2022-07-22","PERIAPSIS":"466.617","SITE":"AFWTR","DECAY_DATE":null,"APOAPSIS":"469.575","ECCENTRICITY":"0.00021600","OBJECT_NAME":"STARLINK-4379","MEAN_ELEMENT_THEORY":"SGP4","PERIOD":"93.959","NORAD_CAT_ID":"53217","ELEMENT_SET_NO":"999","COUNTRY_CODE":"US","OBJECT_TYPE":"PAYLOAD","TIME_SYSTEM":"UTC","CENTER_NAME":"EARTH","ARG_OF_PERICENTER":"120.5955","EPOCH":"2022-08-25T22:00:00.999936","MEAN_MOTION":"15.32588064","SEMIMAJOR_AXIS":"6846.231","REF_FRAME":"TEME","TLE_LINE1":"1 53217U 22084AE  22237.91667824 -.01212671  00000-0 -42537-1 0  9997","RA_OF_ASC_NODE":"297.9040","INCLINATION":"97.6556","FILE":"3547674","GP_ID":"211009261","REV_AT_EPOCH":"130","TLE_LINE2":"2 53217  97.6556 297.9040 0002160 120.5955  76.2100 15.32588064  1307"},{"OBJECT_NAME":"STARLINK-4384","MEAN_ELEMENT_THEORY":"SGP4","PERIOD":"93.970","NORAD_CAT_ID":"53218","LAUNCH_DATE":"2022-07-22","PERIAPSIS":"467.205","SITE":"AFWTR","APOAPSIS":"470.042","ECCENTRICITY":"0.00020720","DECAY_DATE":null,"MEAN_MOTION_DDOT":"0.0000000000000","RCS_SIZE":"LARGE","MEAN_MOTION_DOT":"-0.01212699","BSTAR":"-0.04277700000000","EPHEMERIS_TYPE":"0","MEAN_ANOMALY":"75.4682","OBJECT_ID":"2022-084AF","CLASSIFICATION_TYPE":"U","REV_AT_EPOCH":"130","TLE_LINE2":"2 53218  97.6556 297.9094 0002072 113.8605  75.4682 15.32410894  1307","REF_FRAME":"TEME","RA_OF_ASC_NODE":"297.9094","INCLINATION":"97.6556","TLE_LINE1":"1 53218U 22084AF  22237.91667824 -.01212699  00000-0 -42777-1 0  9994","GP_ID":"211008992","FILE":"3547674","EPOCH":"2022-08-25T22:00:00.999936","ARG_OF_PERICENTER":"113.8605","MEAN_MOTION":"15.32410894","SEMIMAJOR_AXIS":"6846.759","ELEMENT_SET_NO":"999","OBJECT_TYPE":"PAYLOAD","COUNTRY_CODE":"US","TIME_SYSTEM":"UTC","CENTER_NAME":"EARTH"},{"CENTER_NAME":"EARTH","TIME_SYSTEM":"UTC","COUNTRY_CODE":"US","OBJECT_TYPE":"PAYLOAD","ELEMENT_SET_NO":"999","SEMIMAJOR_AXIS":"6845.765","MEAN_MOTION":"15.32744695","ARG_OF_PERICENTER":"111.4864","EPOCH":"2022-08-25T22:00:00.999936","FILE":"3547674","GP_ID":"211009986","TLE_LINE1":"1 53219U 22084AG  22237.91667824 -.01212627  00000-0 -42327-1 0  9997","RA_OF_ASC_NODE":"297.9011","INCLINATION":"97.6556","REF_FRAME":"TEME","TLE_LINE2":"2 53219  97.6556 297.9011 0002053 111.4864  91.5063 15.32744695  1308","REV_AT_EPOCH":"130","CLASSIFICATION_TYPE":"U","OBJECT_ID":"2022-084AG","MEAN_ANOMALY":"91.5063","EPHEMERIS_TYPE":"0","BSTAR":"-0.04232700000000","MEAN_MOTION_DOT":"-0.01212627","RCS_SIZE":"LARGE","MEAN_MOTION_DDOT":"0.0000000000000","DECAY_DATE":null,"APOAPSIS":"469.035","ECCENTRICITY":"0.00020530","PERIAPSIS":"466.224","SITE":"AFWTR","LAUNCH_DATE":"2022-07-22","NORAD_CAT_ID":"53219","PERIOD":"93.949","MEAN_ELEMENT_THEORY":"SGP4","OBJECT_NAME":"STARLINK-4373"},{"ARG_OF_PERICENTER":"105.3955","EPOCH":"2022-08-25T22:00:00.999936","MEAN_MOTION":"15.32524696","SEMIMAJOR_AXIS":"6846.420","ELEMENT_SET_NO":"999","OBJECT_TYPE":"PAYLOAD","COUNTRY_CODE":"US","TIME_SYSTEM":"UTC","CENTER_NAME":"EARTH","REV_AT_EPOCH":"130","TLE_LINE2":"2 53220  97.6556 297.9051 0002004 105.3955  89.0553 15.32524696  1306","REF_FRAME":"TEME","RA_OF_ASC_NODE":"297.9051","INCLINATION":"97.6556","TLE_LINE1":"1 53220U 22084AH  22237.91667824 -.01212627  00000-0 -42622-1 0  9997","GP_ID":"211009129","FILE":"3547674","MEAN_MOTION_DDOT":"0.0000000000000","RCS_SIZE":"LARGE","MEAN_MOTION_DOT":"-0.01212627","BSTAR":"-0.04262200000000","EPHEMERIS_TYPE":"0","MEAN_ANOMALY":"89.0553","OBJECT_ID":"2022-084AH","CLASSIFICATION_TYPE":"U","OBJECT_NAME":"STARLINK-4363","MEAN_ELEMENT_THEORY":"SGP4","PERIOD":"93.963","NORAD_CAT_ID":"53220","LAUNCH_DATE":"2022-07-22","SITE":"AFWTR","PERIAPSIS":"466.913","ECCENTRICITY":"0.00020040","APOAPSIS":"469.657","DECAY_DATE":null},{"COUNTRY_CODE":"US","OBJECT_TYPE":"PAYLOAD","ELEMENT_SET_NO":"999","CENTER_NAME":"EARTH","TIME_SYSTEM":"UTC","MEAN_MOTION":"15.33020299","EPOCH":"2022-08-25T22:00:00.999936","ARG_OF_PERICENTER":"114.2344","SEMIMAJOR_AXIS":"6844.944","TLE_LINE1":"1 53221U 22084AJ  22237.91667824 -.01212649  00000-0 -41961-1 0  9997","RA_OF_ASC_NODE":"297.9027","INCLINATION":"97.6556","REF_FRAME":"TEME","FILE":"3547674","GP_ID":"211009679","TLE_LINE2":"2 53221  97.6556 297.9027 0002079 114.2344  96.4550 15.33020299  1303","REV_AT_EPOCH":"130","OBJECT_ID":"2022-084AJ","MEAN_ANOMALY":"96.4550","CLASSIFICATION_TYPE":"U","RCS_SIZE":"LARGE","MEAN_MOTION_DDOT":"0.0000000000000","EPHEMERIS_TYPE":"0","BSTAR":"-0.04196100000000","MEAN_MOTION_DOT":"-0.01212649","SITE":"AFWTR","PERIAPSIS":"465.386","LAUNCH_DATE":"2022-07-22","DECAY_DATE":null,"APOAPSIS":"468.232","ECCENTRICITY":"0.00020790","MEAN_ELEMENT_THEORY":"SGP4","OBJECT_NAME":"STARLINK-4377","NORAD_CAT_ID":"53221","PERIOD":"93.932"},{"TIME_SYSTEM":"UTC","CENTER_NAME":"EARTH","ELEMENT_SET_NO":"999","OBJECT_TYPE":"PAYLOAD","COUNTRY_CODE":"US","SEMIMAJOR_AXIS":"6846.215","ARG_OF_PERICENTER":"122.2037","EPOCH":"2022-08-25T22:00:00.999936","MEAN_MOTION":"15.32593392","FILE":"3547674","GP_ID":"211009410","REF_FRAME":"TEME","TLE_LINE1":"1 53222U 22084AK  22237.91667824 -.01212682  00000-0 -42530-1 0  9998","RA_OF_ASC_NODE":"297.9034","INCLINATION":"97.6556","REV_AT_EPOCH":"130","TLE_LINE2":"2 53222  97.6556 297.9034 0002185 122.2037  75.4644 15.32593392  1307","CLASSIFICATION_TYPE":"U","OBJECT_ID":"2022-084AK","MEAN_ANOMALY":"75.4644","MEAN_MOTION_DOT":"-0.01212682","BSTAR":"-0.04253000000000","EPHEMERIS_TYPE":"0","MEAN_MOTION_DDOT":"0.0000000000000","RCS_SIZE":"LARGE","DECAY_DATE":null,"APOAPSIS":"469.576","ECCENTRICITY":"0.00021850","LAUNCH_DATE":"2022-07-22","SITE":"AFWTR","PERIAPSIS":"466.584","PERIOD":"93.958","NORAD_CAT_ID":"53222","OBJECT_NAME":"STARLINK-4381","MEAN_ELEMENT_THEORY":"SGP4"},{"CLASSIFICATION_TYPE":"U","MEAN_ANOMALY":"98.9066","OBJECT_ID":"2022-084AL","EPHEMERIS_TYPE":"0","MEAN_MOTION_DOT":"-0.01212672","BSTAR":"-0.04175400000000","RCS_SIZE":"LARGE","MEAN_MOTION_DDOT":"0.0000000000000","APOAPSIS":"467.787","ECCENTRICITY":"0.00021110","DECAY_DATE":null,"SITE":"AFWTR","PERIAPSIS":"464.897","LAUNCH_DATE":"2022-07-22","NORAD_CAT_ID":"53223","PERIOD":"93.923","MEAN_ELEMENT_THEORY":"SGP4","OBJECT_NAME":"STARLINK-4354","CENTER_NAME":"EARTH","TIME_SYSTEM":"UTC","OBJECT_TYPE":"PAYLOAD","COUNTRY_CODE":"US","ELEMENT_SET_NO":"999","SEMIMAJOR_AXIS":"6844.477","MEAN_MOTION":"15.33177177","EPOCH":"2022-08-25T22:00:00.999936","ARG_OF_PERICENTER":"117.1551","GP_ID":"211009822","FILE":"3547674","INCLINATION":"97.6556","RA_OF_ASC_NODE":"297.9020","TLE_LINE1":"1 53223U 22084AL  22237.91667824 -.01212672  00000-0 -41754-1 0  9995","REF_FRAME":"TEME","TLE_LINE2":"2 53223  97.6556 297.9020 0002111 117.1551  98.9066 15.33177177  1304","REV_AT_EPOCH":"130"},{"CLASSIFICATION_TYPE":"U","OBJECT_ID":"2022-084AM","MEAN_ANOMALY":"83.9943","MEAN_MOTION_DOT":"-0.01212666","BSTAR":"-0.04248800000000","EPHEMERIS_TYPE":"0","MEAN_MOTION_DDOT":"0.0000000000000","RCS_SIZE":"LARGE","DECAY_DATE":null,"ECCENTRICITY":"0.00020910","APOAPSIS":"469.417","LAUNCH_DATE":"2022-07-22","PERIAPSIS":"466.554","SITE":"AFWTR","PERIOD":"93.956","NORAD_CAT_ID":"53224","OBJECT_NAME":"STARLINK-4356","MEAN_ELEMENT_THEORY":"SGP4","TIME_SYSTEM":"UTC","CENTER_NAME":"EARTH","ELEMENT_SET_NO":"999","COUNTRY_CODE":"US","OBJECT_TYPE":"PAYLOAD","SEMIMAJOR_AXIS":"6846.121","ARG_OF_PERICENTER":"115.2135","EPOCH":"2022-08-25T22:00:00.999936","MEAN_MOTION":"15.32625080","FILE":"3547674","GP_ID":"211009548","REF_FRAME":"TEME","TLE_LINE1":"1 53224U 22084AM  22237.91667824 -.01212666  00000-0 -42488-1 0  9994","INCLINATION":"97.6556","RA_OF_ASC_NODE":"297.9017","REV_AT_EPOCH":"130","TLE_LINE2":"2 53224  97.6556 297.9017 0002091 115.2135  83.9943 15.32625080  1303"}];
